PROMETHEUS 2-1          
1 41854U 16067G   25124.57420483  .00046062  00000+0  96583-3 0  9990
2 41854  98.0822 333.7885 0006141  30.9252 329.2355 15.45246624464847
PROMETHEUS 2-3          
1 41855U 16067H   25124.51863620  .00046395  00000+0  97382-3 0  9996
2 41855  98.0768 332.9201 0005450  43.7251 316.4426 15.45218838464835
CORVUS BC2              
1 42846U 17042X   25124.48842208  .00005062  00000+0  38261-3 0  9993
2 42846  97.3740 298.8204 0015022  71.4308 288.8548 15.02693499425611
CORVUS BC1              
1 42847U 17042Y   25124.47867135  .00004765  00000+0  35822-3 0  9998
2 42847  97.3777 299.3179 0014181  52.3802 307.8708 15.02935766425639
MIRATA                  
1 43015U 17073C   25124.58563900  .00063263  00000+0  11769-2 0  9996
2 43015  97.5438  17.9447 0088139 214.2902 145.2638 15.44403622405247
MAKERSAT 0              
1 43016U 17073D   25124.15017789  .00017076  00000+0  70445-3 0  9997
2 43016  97.5240   2.7064 0147834 266.2948  92.1369 15.14595650404229
SIRION PATHFINDER-2     
1 43759U 18099B   25124.59157401  .00005736  00000+0  36135-3 0  9992
2 43759  97.4802 178.3854 0007987 266.8359  93.1956 15.09518092350883
CORVUS BC4              
1 43767U 18099K   25124.12327120  .00006006  00000+0  39348-3 0  9997
2 43767  97.4624 173.9157 0008024 340.0423  20.0490 15.08049694350665
MOVE-II                 
1 43780U 18099Y   25124.17766014  .00172274  00000+0  18812-2 0  9999
2 43780  97.4672 197.4118 0005168 228.0980 131.9838 15.62771188352097
SPACEBEE-7              
1 43816U 18099BL  25124.16477350  .00035604  00000+0  10760-2 0  9999
2 43816  97.4973 193.7694 0006110 228.4074 131.6646 15.34130416351214
SHIELDS 1               
1 43850U 18104B   25124.25904856  .00040087  00000+0  51738-3 0  9992
2 43850  85.0153  62.0787 0003105 301.5074  58.5884 15.58805109355792
SONATE                  
1 44400U 19038Q   25123.98427758  .00180150  00000+0  99818-3 0  9998
2 44400  97.6964 146.4246 0004915  59.3954 300.7797 15.79043739323779
DUCHIFAT-3              
1 44854U 19089C   25124.56564679  .00051803  00000+0  11176-2 0  9998
2 44854  36.9438 223.6640 0001278 329.2855  30.7826 15.43546526297448
M2 PATHFINDER           
1 45727U 20037E   25124.50044851  .00004714  00000+0  36369-3 0  9993
2 45727  97.8179 306.8890 0014726  96.9973 263.2926 15.01992070264090
NETSAT-4                
1 46504U 20068U   25124.44013884  .00016586  00000+0  58345-3 0  9994
2 46504  97.8440 100.2601 0006428 349.2270  10.8830 15.29411498253026
NETSAT-3                
1 46505U 20068V   25124.46375625  .00015317  00000+0  56254-3 0  9999
2 46505  97.8439  99.3110 0006607   0.6715 359.4531 15.28013458252997
NETSAT-1                
1 46506U 20068W   25124.47204064  .00012153  00000+0  51205-3 0  9995
2 46506  97.8462  97.4029 0006892  14.0629 346.0797 15.23479949252869
NETSAT-2                
1 46507U 20068X   25124.42141355  .00016487  00000+0  58677-3 0  9998
2 46507  97.8436  99.7498 0005930  21.0238 339.1244 15.29032465252967
WILDTRACKCUBE-SIMBA     
1 47941U 21022K   25124.61544883  .00034202  00000+0  76616-3 0  9994
2 47941  97.4253  28.3892 0012848  85.7076 274.5640 15.43281906227643
GRBALPHA                
1 47959U 21022AD  25124.61424052  .00273404  00000+0  14613-2 0  9995
2 47959  97.4172  36.2838 0008902  96.7756 263.4524 15.79568209226980
LEDSAT                  
1 49069U 21073D   25124.15431885  .00070984  00000+0  10117-2 0  9999
2 49069  97.3902 204.3008 0011822 204.5252 155.5441 15.56002689205768
ROBUSTA-1F (MTCUBE 2)   
1 53109U 22080E   25123.86064089 -.00000003  00000+0  00000+0 0  9996
2 53109  70.1307  80.5881 0008638  15.8894 344.2035  6.42584303 65768
SITRO-AIS 5 (KATYS)     
1 57176U 23091L   25124.59801720  .00011509  00000+0  54989-3 0  9990
2 57176  97.5610 181.5037 0016000  96.9306 263.3749 15.19076113102114
SITRO-AIS 6 (CHIRKIN)   
1 57192U 23091AC  25124.58329897  .00011883  00000+0  56901-3 0  9998
2 57192  97.5607 181.5049 0015856  96.7187 263.5853 15.18992422102111
SITRO-AIS 8 (ANOKHIN)   
1 57193U 23091AD  25124.58910949  .00012974  00000+0  59760-3 0  9991
2 57193  97.5604 181.9410 0015312  96.7839 263.5139 15.20321945102145
SITRO-AIS 7 (FARTUSHNIY)
1 57194U 23091AE  25124.60270163  .00010920  00000+0  52458-3 0  9998
2 57194  97.5608 181.4687 0015811  97.2126 263.0906 15.18904092102111
SITRO-AIS 10 (BURDAEV)  
1 57199U 23091AK  25124.58197377  .00015685  00000+0  65803-3 0  9996
2 57199  97.5616 184.0692 0010952  84.4529 275.7956 15.23519135102274
SITRO-AIS 9 (SHCHUKIN)  
1 57201U 23091AM  25124.59548061  .00014723  00000+0  62102-3 0  9992
2 57201  97.5612 184.0086 0010930  84.5461 275.7022 15.23350898102276
SITRO-AIS 12 (SMIRENNIY)
1 57204U 23091AQ  25124.58238021  .00015344  00000+0  64321-3 0  9991
2 57204  97.5621 184.2615 0010707  79.0140 281.2300 15.23554439102283
SITRO-AIS 11 (SHEFFER)  
1 57208U 23091AU  25124.60551162  .00014656  00000+0  61126-3 0  9997
2 57208  97.5619 184.3639 0010589  79.4408 280.8021 15.23738519102299
VERONIKA                
1 58261U 23174F   25124.47648609  .00116828  00000+0  13480-2 0  9990
2 58261  97.4139 208.7394 0007409 185.2429 174.8752 15.61510161 83036
ROBUSTA-1E (ENSO)       
1 58470U 23185J   25124.57600111  .00058272  00000+0  96276-3 0  9994
2 58470  97.3755 198.6427 0008494 202.7516 157.3361 15.52015534 79448
SITRO-AIS 29            
1 59052U 24039B   25124.59536677  .01985821  42362-2  15471-2 0  9994
2 59052  97.4028 100.8083 0009492 167.6650 192.4870 16.15819762 66344
SITRO-AIS 30            
1 59053U 24039C   25124.56172134  .00771356  27806-3  15178-2 0  9992
2 59053  97.4047 100.2192 0011683 141.8914 218.3193 15.99995896 66297
SITRO-AIS 31            
1 59054U 24039D   25124.58969383  .01295863  10727-2  15259-2 0  9993
2 59054  97.4093 100.6706 0010408 154.4204 205.7595 16.08780593 66349
SITRO-AIS 33            
1 59055U 24039E   25124.59886019  .01613415  20557-2  15289-2 0  9991
2 59055  97.4074 100.8077 0009907 164.1878 195.9718 16.12380832 66343
SITRO-AIS 35            
1 59056U 24039F   25124.61759887  .02132883  24117-5  14646-2 0  9998
2 59056  97.3955 100.9426 0009450 162.4361 197.7254 16.16472012 66353
SITRO-AIS 32            
1 59057U 24039G   25124.60269318  .00941063  45576-3  15371-2 0  9995
2 59057  97.4130 100.5150 0010723 147.0869 213.1081 16.03277305 66329
SITRO-AIS 34            
1 59058U 24039H   25124.59820418  .01623595  21106-2  15057-2 0  9999
2 59058  97.4075 100.8166 0009996 164.9071 195.2514 16.12714774 66340
SITRO-AIS 36            
1 59059U 24039J   25124.61659971  .01154023  77994-3  15239-2 0  9991
2 59059  97.4007 100.7648 0010509 151.6848 208.5007 16.06877312 66343
SITRO-AIS 49            
1 59060U 24039K   25124.58776711  .00845761  35005-3  15063-2 0  9998
2 59060  97.4056 100.5116 0011263 142.1237 218.0836 16.01760812 66327
SITRO-AIS 25            
1 59066U 24039R   25124.57025866  .00003966  00000+0  34118-3 0  9990
2 59066  95.3762 315.5209 0154964 312.6162  46.2078 14.88827663 63835
SITRO-AIS 26            
1 59067U 24039S   25124.59258145  .00004477  00000+0  38601-3 0  9990
2 59067  95.3762 315.5010 0155142 312.7313  46.0936 14.88679877 63837
SITRO-AIS 27            
1 59068U 24039T   25124.59538161  .00004540  00000+0  38886-3 0  9996
2 59068  95.3763 315.6143 0154412 312.1284  46.6899 14.89001271 63840
SITRO-AIS 28            
1 59071U 24039U   25124.58343557  .00004207  00000+0  36035-3 0  9996
2 59071  95.3764 315.6305 0154284 312.0933  46.7255 14.89041588 63844
GRBBETA                 
1 60237U 24128C   25124.53124706  .00004860  00000+0  37228-3 0  9999
2 60237  61.9913 205.2146 0048855  49.3448 311.1874 15.02312944 44780
OOV-CUBE (TUBSAT-30)    
1 60240U 24128F   25124.60239884  .00003130  00000+0  26052-3 0  9997
2 60240  61.9958 207.3050 0048372  46.1277 314.3792 15.00050977 44764
ROBUSTA-3A (MEDITERRAN*)
1 60243U 24128J   25124.54977653  .00008347  00000+0  59876-3 0  9991
2 60243  61.9882 204.6569 0047216  42.6469 317.8272 15.04136231 44806
LASARSAT                
1 62391U 24247Q   25124.03439789  .00019387  00000+0  77625-3 0  9994
2 62391  44.9886 358.8336 0008037 194.9113 165.1533 15.24795316 20485
CROCUBE                 
1 62394U 24247T   25124.03258900  .00019753  00000+0  78702-3 0  9995
2 62394  44.9868 358.8135 0008637 193.7620 166.3028 15.24945091 20480
